[{"OBJECT_NAME":"METOP-C","OBJECT_ID":"2018-087A","EPOCH":"2026-03-05T14:21:12.430656","MEAN_MOTION":14.21495453,"ECCENTRICITY":0.00021822,"INCLINATION":98.6773,"RA_OF_ASC_NODE":126.0404,"ARG_OF_PERICENTER":105.5946,"MEAN_ANOMALY":254.5472,"EPHEMERIS_TYPE":0,"CLASSIFICATION_TYPE":"U","NORAD_CAT_ID":43689,"ELEMENT_SET_NO":999,"REV_AT_EPOCH":38011,"BSTAR":9.065433e-5,"MEAN_MOTION_DOT":1.55e-6,"MEAN_MOTION_DDOT":0},{"OBJECT_NAME":"GEO-KOMPSAT-2A","OBJECT_ID":"2018-100A","EPOCH":"2026-03-04T06:21:38.470176","MEAN_MOTION":1.00267019,"ECCENTRICITY":0.00017508,"INCLINATION":0.0084,"RA_OF_ASC_NODE":82.1864,"ARG_OF_PERICENTER":326.5345,"MEAN_ANOMALY":336.9688,"EPHEMERIS_TYPE":0,"CLASSIFICATION_TYPE":"U","NORAD_CAT_ID":43823,"ELEMENT_SET_NO":999,"REV_AT_EPOCH":2657,"BSTAR":0,"MEAN_MOTION_DOT":0,"MEAN_MOTION_DDOT":0},{"OBJECT_NAME":"METEOR-M2 2","OBJECT_ID":"2019-038A","EPOCH":"2026-03-05T15:07:50.499840","MEAN_MOTION":14.24332258,"ECCENTRICITY":0.00011222,"INCLINATION":98.9079,"RA_OF_ASC_NODE":50.4255,"ARG_OF_PERICENTER":11.7313,"MEAN_ANOMALY":348.3892,"EPHEMERIS_TYPE":0,"CLASSIFICATION_TYPE":"U","NORAD_CAT_ID":44387,"ELEMENT_SET_NO":999,"REV_AT_EPOCH":34655,"BSTAR":9.5465962e-5,"MEAN_MOTION_DOT":1.75e-6,"MEAN_MOTION_DDOT":0},{"OBJECT_NAME":"ARKTIKA-M 1","OBJECT_ID":"2021-016A","EPOCH":"2026-03-02T19:44:56.440608","MEAN_MOTION":2.00620868,"ECCENTRICITY":0.72428147,"INCLINATION":63.2036,"RA_OF_ASC_NODE":72.8571,"ARG_OF_PERICENTER":269.4536,"MEAN_ANOMALY":15.2019,"EPHEMERIS_TYPE":0,"CLASSIFICATION_TYPE":"U","NORAD_CAT_ID":47719,"ELEMENT_SET_NO":999,"REV_AT_EPOCH":3665,"BSTAR":0,"MEAN_MOTION_DOT":-1.08e-6,"MEAN_MOTION_DDOT":0},{"OBJECT_NAME":"FENGYUN 3E","OBJECT_ID":"2021-062A","EPOCH":"2026-03-05T14:45:30.935232","MEAN_MOTION":14.19893362,"ECCENTRICITY":0.00024186,"INCLINATION":98.7507,"RA_OF_ASC_NODE":69.1736,"ARG_OF_PERICENTER":49.6925,"MEAN_ANOMALY":310.4463,"EPHEMERIS_TYPE":0,"CLASSIFICATION_TYPE":"U","NORAD_CAT_ID":49008,"ELEMENT_SET_NO":999,"REV_AT_EPOCH":24188,"BSTAR":1.3114613e-5,"MEAN_MOTION_DOT":-1.6e-7,"MEAN_MOTION_DDOT":0},{"OBJECT_NAME":"GOES 18","OBJECT_ID":"2022-021A","EPOCH":"2026-03-05T13:20:45.420000","MEAN_MOTION":1.00272608,"ECCENTRICITY":7.162e-5,"INCLINATION":0.033,"RA_OF_ASC_NODE":75.9319,"ARG_OF_PERICENTER":327.9002,"MEAN_ANOMALY":182.6318,"EPHEMERIS_TYPE":0,"CLASSIFICATION_TYPE":"U","NORAD_CAT_ID":51850,"ELEMENT_SET_NO":999,"REV_AT_EPOCH":555,"BSTAR":0,"MEAN_MOTION_DOT":8.9e-7,"MEAN_MOTION_DDOT":0},{"OBJECT_NAME":"NOAA 21 (JPSS-2)","OBJECT_ID":"2022-150A","EPOCH":"2026-03-05T13:31:30.781344","MEAN_MOTION":14.19550862,"ECCENTRICITY":0.00025741,"INCLINATION":98.7551,"RA_OF_ASC_NODE":4.8768,"ARG_OF_PERICENTER":113.8834,"MEAN_ANOMALY":246.2612,"EPHEMERIS_TYPE":0,"CLASSIFICATION_TYPE":"U","NORAD_CAT_ID":54234,"ELEMENT_SET_NO":999,"REV_AT_EPOCH":17184,"BSTAR":8.1323148e-5,"MEAN_MOTION_DOT":1.28e-6,"MEAN_MOTION_DDOT":0},{"OBJECT_NAME":"METEOSAT-12 (MTG-I1)","OBJECT_ID":"2022-170C","EPOCH":"2026-03-05T13:59:26.710656","MEAN_MOTION":1.00269755,"ECCENTRICITY":0.00020784,"INCLINATION":0.7025,"RA_OF_ASC_NODE":21.5523,"ARG_OF_PERICENTER":286.8214,"MEAN_ANOMALY":64.4958,"EPHEMERIS_TYPE":0,"CLASSIFICATION_TYPE":"U","NORAD_CAT_ID":54743,"ELEMENT_SET_NO":999,"REV_AT_EPOCH":1193,"BSTAR":0,"MEAN_MOTION_DOT":-1.5e-7,"MEAN_MOTION_DDOT":0},{"OBJECT_NAME":"TIANMU-1 03","OBJECT_ID":"2023-039A","EPOCH":"2026-03-05T16:00:38.181312","MEAN_MOTION":15.44018788,"ECCENTRICITY":0.00040234,"INCLINATION":97.5171,"RA_OF_ASC_NODE":234.8501,"ARG_OF_PERICENTER":113.2052,"MEAN_ANOMALY":246.962,"EPHEMERIS_TYPE":0,"CLASSIFICATION_TYPE":"U","NORAD_CAT_ID":55973,"ELEMENT_SET_NO":999,"REV_AT_EPOCH":16484,"BSTAR":0.00045402067,"MEAN_MOTION_DOT":0.00020649,"MEAN_MOTION_DDOT":0},{"OBJECT_NAME":"TIANMU-1 04","OBJECT_ID":"2023-039B","EPOCH":"2026-03-05T13:29:21.156288","MEAN_MOTION":15.44422092,"ECCENTRICITY":0.00046417,"INCLINATION":97.5104,"RA_OF_ASC_NODE":233.903,"ARG_OF_PERICENTER":109.1535,"MEAN_ANOMALY":251.0216,"EPHEMERIS_TYPE":0,"CLASSIFICATION_TYPE":"U","NORAD_CAT_ID":55974,"ELEMENT_SET_NO":999,"REV_AT_EPOCH":16483,"BSTAR":0.00048855438,"MEAN_MOTION_DOT":0.00022539,"MEAN_MOTION_DDOT":0},{"OBJECT_NAME":"TIANMU-1 05","OBJECT_ID":"2023-039C","EPOCH":"2026-03-05T12:20:02.635296","MEAN_MOTION":15.43953758,"ECCENTRICITY":0.00037489,"INCLINATION":97.5149,"RA_OF_ASC_NODE":234.3449,"ARG_OF_PERICENTER":130.1627,"MEAN_ANOMALY":229.995,"EPHEMERIS_TYPE":0,"CLASSIFICATION_TYPE":"U","NORAD_CAT_ID":55975,"ELEMENT_SET_NO":999,"REV_AT_EPOCH":16480,"BSTAR":0.00047500251,"MEAN_MOTION_DOT":0.00021561,"MEAN_MOTION_DDOT":0},{"OBJECT_NAME":"TIANMU-1 06","OBJECT_ID":"2023-039D","EPOCH":"2026-03-05T13:29:11.024160","MEAN_MOTION":15.44451635,"ECCENTRICITY":0.00040632,"INCLINATION":97.5161,"RA_OF_ASC_NODE":234.9309,"ARG_OF_PERICENTER":125.9614,"MEAN_ANOMALY":234.2011,"EPHEMERIS_TYPE":0,"CLASSIFICATION_TYPE":"U","NORAD_CAT_ID":55976,"ELEMENT_SET_NO":999,"REV_AT_EPOCH":16483,"BSTAR":0.00049427198,"MEAN_MOTION_DOT":0.00022826,"MEAN_MOTION_DDOT":0},{"OBJECT_NAME":"FENGYUN 3G","OBJECT_ID":"2023-055A","EPOCH":"2026-03-05T15:33:13.029408","MEAN_MOTION":15.54320614,"ECCENTRICITY":0.00107191,"INCLINATION":49.9933,"RA_OF_ASC_NODE":159.8666,"ARG_OF_PERICENTER":354.9512,"MEAN_ANOMALY":5.1346,"EPHEMERIS_TYPE":0,"CLASSIFICATION_TYPE":"U","NORAD_CAT_ID":56232,"ELEMENT_SET_NO":999,"REV_AT_EPOCH":16391,"BSTAR":0.000535542,"MEAN_MOTION_DOT":0.00035515,"MEAN_MOTION_DDOT":0},{"OBJECT_NAME":"METEOR-M2 3","OBJECT_ID":"2023-091A","EPOCH":"2026-03-05T14:26:38.015232","MEAN_MOTION":14.24037214,"ECCENTRICITY":0.00050702,"INCLINATION":98.6223,"RA_OF_ASC_NODE":121.6385,"ARG_OF_PERICENTER":108.568,"MEAN_ANOMALY":251.605,"EPHEMERIS_TYPE":0,"CLASSIFICATION_TYPE":"U","NORAD_CAT_ID":57166,"ELEMENT_SET_NO":999,"REV_AT_EPOCH":13977,"BSTAR":3.2143676e-5,"MEAN_MOTION_DOT":3.1e-7,"MEAN_MOTION_DDOT":0},{"OBJECT_NAME":"TIANMU-1 07","OBJECT_ID":"2023-101A","EPOCH":"2026-03-05T14:13:50.449728","MEAN_MOTION":15.29103252,"ECCENTRICITY":0.00045409,"INCLINATION":97.273,"RA_OF_ASC_NODE":117.6331,"ARG_OF_PERICENTER":145.1249,"MEAN_ANOMALY":215.029,"EPHEMERIS_TYPE":0,"CLASSIFICATION_TYPE":"U","NORAD_CAT_ID":57399,"ELEMENT_SET_NO":999,"REV_AT_EPOCH":14581,"BSTAR":0.00031970067,"MEAN_MOTION_DOT":8.963e-5,"MEAN_MOTION_DDOT":0},{"OBJECT_NAME":"TIANMU-1 08","OBJECT_ID":"2023-101B","EPOCH":"2026-03-05T15:04:38.202816","MEAN_MOTION":15.29264611,"ECCENTRICITY":0.00065022,"INCLINATION":97.2724,"RA_OF_ASC_NODE":117.4464,"ARG_OF_PERICENTER":136.1619,"MEAN_ANOMALY":224.0139,"EPHEMERIS_TYPE":0,"CLASSIFICATION_TYPE":"U","NORAD_CAT_ID":57400,"ELEMENT_SET_NO":999,"REV_AT_EPOCH":14581,"BSTAR":2.1160734e-5,"MEAN_MOTION_DOT":5.28e-6,"MEAN_MOTION_DDOT":0},{"OBJECT_NAME":"TIANMU-1 09","OBJECT_ID":"2023-101C","EPOCH":"2026-03-05T14:37:54.003648","MEAN_MOTION":15.29128826,"ECCENTRICITY":0.0005033,"INCLINATION":97.2677,"RA_OF_ASC_NODE":116.9066,"ARG_OF_PERICENTER":147.3235,"MEAN_ANOMALY":212.8317,"EPHEMERIS_TYPE":0,"CLASSIFICATION_TYPE":"U","NORAD_CAT_ID":57401,"ELEMENT_SET_NO":999,"REV_AT_EPOCH":14581,"BSTAR":0.00035484,"MEAN_MOTION_DOT":9.966e-5,"MEAN_MOTION_DDOT":0}]
