METOP-C                 
1 43689U 18087A   26064.59806054  .00000155  00000+0  90654-4 0  9997
2 43689  98.6773 126.0404 0002182 105.5946 254.5472 14.21495453380112
GEO-KOMPSAT-2A          
1 43823U 18100A   26063.26502859  .00000000  00000+0  00000+0 0  9992
2 43823   0.0084  82.1864 0001750 326.5345 336.9688  1.00267019 26573
METEOR-M2 2             
1 44387U 19038A   26064.63044560  .00000175  00000+0  95466-4 0  9999
2 44387  98.9079  50.4255 0001122  11.7313 348.3892 14.24332258346557
ARKTIKA-M 1             
1 47719U 21016A   26061.82287547 -.00000108  00000+0  00000+0 0  9994
2 47719  63.2036  72.8571 7242814 269.4536  15.2019  2.00620868 36653
FENGYUN 3E              
1 49008U 21062A   26064.61494138 -.00000016  00000+0  13115-4 0  9998
2 49008  98.7507  69.1736 0002418  49.6925 310.4463 14.19893362241881
GOES 18                 
1 51850U 22021A   26064.55608125  .00000089  00000+0  00000+0 0  9991
2 51850   0.0330  75.9319 0000716 327.9002 182.6318  1.00272608  5558
NOAA 21 (JPSS-2)        
1 54234U 22150A   26064.56355071  .00000128  00000+0  81323-4 0  9999
2 54234  98.7551   4.8768 0002574 113.8834 246.2612 14.19550862171849
METEOSAT-12 (MTG-I1)    
1 54743U 22170C   26064.58294804 -.00000015  00000+0  00000+0 0  9998
2 54743   0.7025  21.5523 0002078 286.8214  64.4958  1.00269755 11930
TIANMU-1 03             
1 55973U 23039A   26064.66710858  .00020649  00000+0  45402-3 0  9993
2 55973  97.5171 234.8501 0004023 113.2052 246.9620 15.44018788164845
TIANMU-1 04             
1 55974U 23039B   26064.56205042  .00022539  00000+0  48855-3 0  9992
2 55974  97.5104 233.9030 0004641 109.1535 251.0216 15.44422092164839
TIANMU-1 05             
1 55975U 23039C   26064.51391939  .00021561  00000+0  47500-3 0  9999
2 55975  97.5149 234.3449 0003748 130.1627 229.9950 15.43953758164804
TIANMU-1 06             
1 55976U 23039D   26064.56193315  .00022826  00000+0  49427-3 0  9998
2 55976  97.5161 234.9309 0004063 125.9614 234.2011 15.44451635164837
FENGYUN 3G              
1 56232U 23055A   26064.64806747  .00035515  00000+0  53554-3 0  9996
2 56232  49.9933 159.8666 0010719 354.9512   5.1346 15.54320614163915
METEOR-M2 3             
1 57166U 23091A   26064.60182888  .00000031  00000+0  32144-4 0  9990
2 57166  98.6223 121.6385 0005070 108.5680 251.6050 14.24037214139777
TIANMU-1 07             
1 57399U 23101A   26064.59294502  .00008963  00000+0  31970-3 0  9992
2 57399  97.2730 117.6331 0004540 145.1249 215.0290 15.29103252145812
TIANMU-1 08             
1 57400U 23101B   26064.62821994  .00000528  00000+0  21161-4 0  9991
2 57400  97.2724 117.4464 0006502 136.1619 224.0139 15.29264611145813
TIANMU-1 09             
1 57401U 23101C   26064.60965282  .00009966  00000+0  35484-3 0  9996
2 57401  97.2677 116.9066 0005033 147.3235 212.8317 15.29128826145819
